[{"OBJECT_NAME":"STARLINK-3308","OBJECT_ID":"2022-001AV","EPOCH":"2026-03-09T12:57:26.773344","MEAN_MOTION":15.08840261,"ECCENTRICITY":0.00013789,"INCLINATION":53.2172,"RA_OF_ASC_NODE":179.909,"ARG_OF_PERICENTER":92.9223,"MEAN_ANOMALY":267.1927,"EPHEMERIS_TYPE":0,"CLASSIFICATION_TYPE":"U","NORAD_CAT_ID":50846,"ELEMENT_SET_NO":999,"REV_AT_EPOCH":23024,"BSTAR":1.7280049e-5,"MEAN_MOTION_DOT":-1.3e-7,"MEAN_MOTION_DDOT":0},{"OBJECT_NAME":"COSMOS 2251 DEB","OBJECT_ID":"1993-036BLZ","EPOCH":"2026-03-06T21:00:05.608224","MEAN_MOTION":14.97960044,"ECCENTRICITY":0.00597249,"INCLINATION":73.9479,"RA_OF_ASC_NODE":151.0759,"ARG_OF_PERICENTER":149.7591,"MEAN_ANOMALY":210.7065,"EPHEMERIS_TYPE":0,"CLASSIFICATION_TYPE":"U","NORAD_CAT_ID":37496,"ELEMENT_SET_NO":999,"REV_AT_EPOCH":67275,"BSTAR":0.0022465948,"MEAN_MOTION_DOT":0.00027564,"MEAN_MOTION_DDOT":0}]
